NORAD_CAT_ID,OBJECT_NAME,OBJECT_TYPE,EPOCH,MEAN_MOTION,ECCENTRICITY,INCLINATION,RA_OF_ASC_NODE,ARG_OF_PERICENTER,MEAN_ANOMALY,BSTAR,MEAN_MOTION_DOT,MEAN_MOTION_DDOT,TLE_LINE0,TLE_LINE1,TLE_LINE2,SEMIMAJOR_AXIS,PERIOD,APOGEE,PERIGEE,DECAYED
53002.0,STARLINK-4121,PAYLOAD,2023-01-23 10:27:08,15.08839137,0.0002182,53.2155,177.4172,55.5392,304.5806,0.00013684,1.89e-05,0.0,0 STARLINK-4121,1 53002U 22076S   23023.43551266  .00001890  00000-0  13684-3 0  9992,2 53002  53.2155 177.4172 0002182  55.5392 304.5806 15.08839137 31021,6917.883000000001,95.438,541.258,538.239,0.0
53002.0,STARLINK-4121,PAYLOAD,2023-01-24 13:28:41,15.08836492,0.0002130999999999,53.215,172.362,54.9867,305.1325,7.0085e-05,8.27e-06,0.0,0 STARLINK-4121,1 53002U 22076S   23024.56159474  .00000827  00000-0  70085-4 0  9990,2 53002  53.2150 172.3620 0002131  54.9867 305.1325 15.08836492 31194,6917.891,95.438,541.23,538.2819999999999,0.0
53002.0,STARLINK-4121,PAYLOAD,2023-01-24 19:50:14,15.08843957,0.0002133,53.2149,171.1724,55.0452,305.0741,0.00016745,2.378e-05,0.0,0 STARLINK-4121,1 53002U 22076S   23024.82655107  .00002378  00000-0  16745-3 0  9998,2 53002  53.2149 171.1724 0002133  55.0452 305.0741 15.08843957 31238,6917.868,95.437,541.2090000000001,538.258,0.0
53002.0,STARLINK-4121,PAYLOAD,2023-01-25 13:19:28,15.08839276,0.0001916,53.2153,167.9004,60.9668,299.1516,6.2167e-05,7.01e-06,0.0,0 STARLINK-4121,1 53002U 22076S   23025.55519518  .00000701  00000-0  62167-4 0  9992,2 53002  53.2153 167.9004 0001916  60.9668 299.1516 15.08839276 30870,6917.883000000001,95.438,541.073,538.422,0.0
53002.0,STARLINK-4121,PAYLOAD,2023-01-25 14:54:51,15.088418099999998,0.0001833,53.2158,167.6023,64.8261,295.2921,7.206e-05,8.59e-06,0.0,0 STARLINK-4121,1 53002U 22076S   23025.62143345  .00000859  00000-0  72060-4 0  9998,2 53002  53.2158 167.6023 0001833  64.8261 295.2921 15.08841810 31351,6917.875,95.437,541.008,538.472,0.0
53002.0,STARLINK-4121,PAYLOAD,2023-01-25 19:41:00,15.08845408,0.0001943,53.2151,166.7117,59.7789,300.3395,0.00013221,1.817e-05,0.0,0 STARLINK-4121,1 53002U 22076S   23025.82015018  .00001817  00000-0  13221-3 0  9993,2 53002  53.2151 166.7117 0001943  59.7789 300.3395 15.08845408 30919,6917.8640000000005,95.437,541.073,538.385,0.0
53002.0,STARLINK-4121,PAYLOAD,2023-01-26 14:45:38,15.08842654,0.0002,53.2162,163.1424,72.8157,287.3054,6.816e-05,7.97e-06,0.0,0 STARLINK-4121,1 53002U 22076S   23026.61503242  .00000797  00000-0  68160-4 0  9991,2 53002  53.2162 163.1424 0002000  72.8157 287.3054 15.08842654 31033,6917.871999999999,95.437,541.121,538.354,0.0
53002.0,STARLINK-4121,PAYLOAD,2023-01-26 16:21:01,15.08846567,0.0001954,53.2164,162.8459,71.6123,288.5082,0.00013865,1.92e-05,0.0,0 STARLINK-4121,1 53002U 22076S   23026.68127131  .00001920  00000-0  13865-3 0  9997,2 53002  53.2164 162.8459 0001954  71.6123 288.5082 15.08846567 31510,6917.86,95.437,541.077,538.374,0.0
53002.0,STARLINK-4121,PAYLOAD,2023-01-27 14:36:26,15.0884147,0.0001758,53.2157,158.6826,70.962,289.1562,5.0353e-05,5.13e-06,0.0,0 STARLINK-4121,1 53002U 22076S   23027.60863434  .00000513  00000-0  50353-4 0  9994,2 53002  53.2157 158.6826 0001758  70.9620 289.1562 15.08841470 31652,6917.876,95.437,540.957,538.525,0.0
53002.0,STARLINK-4121,PAYLOAD,2023-01-27 16:11:49,15.08843425,0.0001795,53.2158,158.3852,67.622,292.4962,8.377e-05,1.045e-05,0.0,0 STARLINK-4121,1 53002U 22076S   23027.67487365  .00001045  00000-0  83770-4 0  9996,2 53002  53.2158 158.3852 0001795  67.6220 292.4962 15.08843425 31191,6917.87,95.437,540.977,538.493,0.0
53002.0,STARLINK-4121,PAYLOAD,2023-01-28 12:51:50,15.0883758,0.0001755,53.2161,154.5204,75.5288,284.5899,7.4943e-05,9.05e-06,0.0,0 STARLINK-4121,1 53002U 22076S   23028.53599805  .00000905  00000-0  74943-4 0  9991,2 53002  53.2161 154.5204 0001755  75.5288 284.5899 15.08837580 31323,6917.888,95.438,540.967,538.539,0.0
53002.0,STARLINK-4121,PAYLOAD,2023-01-28 17:37:59,15.08842043,0.0001837,53.2159,153.6295,74.1315,285.988,7.3094e-05,8.75e-06,0.0,0 STARLINK-4121,1 53002U 22076S   23028.73471726  .00000875  00000-0  73094-4 0  9996,2 53002  53.2159 153.6295 0001837  74.1315 285.9880 15.08842043 31827,6917.874,95.437,541.01,538.468,0.0
53002.0,STARLINK-4121,PAYLOAD,2023-01-29 19:04:09,15.08845189,0.0001655,53.2165,148.8695,78.7807,281.3371,0.00012184,1.652e-05,0.0,0 STARLINK-4121,1 53002U 22076S   23029.79455544  .00001652  00000-0  12184-3 0  9999,2 53002  53.2165 148.8695 0001655  78.7807 281.3371 15.08845189 31984,6917.865,95.437,540.874,538.585,0.0
53002.0,STARLINK-4121,PAYLOAD,2023-01-30 07:47:15,15.08831914,0.0001607,53.2168,146.4923,80.4344,279.683,6.6377e-05,7.68e-06,0.0,0 STARLINK-4121,1 53002U 22076S   23030.32448778  .00000768  00000-0  66377-4 0  9992,2 53002  53.2168 146.4923 0001607  80.4344 279.6830 15.08831914 32069,6917.905,95.438,540.882,538.658,0.0
53002.0,STARLINK-4121,PAYLOAD,2023-01-30 10:58:01,15.08832958,0.0001552,53.2161,145.8983,76.6363,283.4802,4.0734e-05,3.6e-06,0.0,0 STARLINK-4121,1 53002U 22076S   23030.45696628  .00000360  00000-0  40734-4 0  9992,2 53002  53.2161 145.8983 0001552  76.6363 283.4802 15.08832958 31619,6917.902,95.438,540.841,538.693,0.0
53002.0,STARLINK-4121,PAYLOAD,2023-01-31 12:24:11,15.08845713,0.0001416,53.2163,141.1395,84.3881,275.7273,0.00020411,2.962e-05,0.0,0 STARLINK-4121,1 53002U 22076S   23031.51680055  .00002962  00000-0  20411-3 0  9996,2 53002  53.2163 141.1395 0001416  84.3881 275.7273 15.08845713 32246,6917.863,95.437,540.707,538.748,0.0
53002.0,STARLINK-4121,PAYLOAD,2023-01-31 17:10:20,15.08852145,0.0001475,53.2156,140.2459,92.5996,267.5165,0.00029422,4.399e-05,0.0,0 STARLINK-4121,1 53002U 22076S   23031.71551675  .00004399  00000-0  29422-3 0  9990,2 53002  53.2156 140.2459 0001475  92.5996 267.5165 15.08852145 31809,6917.843,95.437,540.729,538.688,0.0
53002.0,STARLINK-4121,PAYLOAD,2023-02-01 10:39:35,15.08845106,0.0001799,53.2153,136.9714,115.841,244.2767,0.00019309,2.787e-05,0.0,0 STARLINK-4121,1 53002U 22076S   23032.44415800  .00002787  00000-0  19309-3 0  9992,2 53002  53.2153 136.9714 0001799 115.8410 244.2767 15.08845106 32384,6917.865,95.437,540.974,538.485,0.0
53002.0,STARLINK-4121,PAYLOAD,2023-02-01 12:14:58,15.08846961,0.0001489,53.2151,136.6757,103.3259,256.7899,0.00019508,2.819e-05,0.0,0 STARLINK-4121,1 53002U 22076S   23032.51039775  .00002819  00000-0  19508-3 0  9990,2 53002  53.2151 136.6757 0001489 103.3259 256.7899 15.08846961 31928,6917.859,95.437,540.754,538.694,0.0
53002.0,STARLINK-4121,PAYLOAD,2023-02-02 12:05:45,15.08837667,0.000155,53.2173,132.2177,106.9275,253.1887,-6.3943e-05,-1.305e-05,0.0,0 STARLINK-4121,1 53002U 22076S   23033.50400149 -.00001305  00000-0 -63943-4 0  9991,2 53002  53.2173 132.2177 0001550 106.9275 253.1887 15.08837667 32074,6917.888,95.438,540.825,538.68,0.0
53002.0,STARLINK-4121,PAYLOAD,2023-02-02 23:13:27,15.08833815,0.0001098,53.2152,130.1339,99.4224,260.6892,-9.2873e-05,-1.765e-05,0.0,0 STARLINK-4121,1 53002U 22076S   23033.96768349 -.00001765  00000-0 -92873-4 0  9994,2 53002  53.2152 130.1339 0001098  99.4224 260.6892 15.08833815 32615,6917.899,95.438,540.524,539.005,0.0
53002.0,STARLINK-4121,PAYLOAD,2023-02-03 07:10:24,15.08831933,0.0001252,53.2162,128.6493,100.0764,260.0369,-1.7344e-05,-5.64e-06,0.0,0 STARLINK-4121,1 53002U 22076S   23034.29889234 -.00000564  00000-0 -17344-4 0  9994,2 53002  53.2162 128.6493 0001252 100.0764 260.0369 15.08831933 32194,6917.905,95.438,540.636,538.904,0.0
53002.0,STARLINK-4121,PAYLOAD,2023-02-03 16:42:42,15.08839417,0.0001409,53.216,126.8646,93.5949,266.5204,4.8051e-05,4.77e-06,0.0,0 STARLINK-4121,1 53002U 22076S   23034.69632783  .00000477  00000-0  48051-4 0  9993,2 53002  53.2160 126.8646 0001409  93.5949 266.5204 15.08839417 32258,6917.882,95.438,540.722,538.772,0.0
53002.0,STARLINK-4121,PAYLOAD,2023-02-04 07:01:10,15.0883956,9.34e-05,53.2147,124.188,98.5382,261.5716,0.00013293,1.828e-05,0.0,0 STARLINK-4121,1 53002U 22076S   23035.29248670  .00001828  00000-0  13293-3 0  9998,2 53002  53.2147 124.1880 0000934  98.5382 261.5716 15.08839560 32816,6917.882,95.438,540.393,539.101,0.0
53002.0,STARLINK-4121,PAYLOAD,2023-02-04 13:22:43,15.08848468,0.0001097,53.2157,122.9989,99.3914,260.7203,0.00027587,4.106e-05,0.0,0 STARLINK-4121,1 53002U 22076S   23035.55744290  .00004106  00000-0  27587-3 0  9999,2 53002  53.2157 122.9989 0001097  99.3914 260.7203 15.08848468 32385,6917.855,95.437,540.478,538.961,0.0
53002.0,STARLINK-4121,PAYLOAD,2023-02-04 14:58:06,15.0885026,0.0001114,53.2153,122.7013,98.3584,261.7534,0.00030784,4.616e-05,0.0,0 STARLINK-4121,1 53002U 22076S   23035.62368220  .00004616  00000-0  30784-3 0  9991,2 53002  53.2153 122.7013 0001114  98.3584 261.7534 15.08850260 32863,6917.849,95.437,540.485,538.943,0.0
53002.0,STARLINK-4121,PAYLOAD,2023-02-05 05:16:35,15.08840494,0.0001501,53.2146,120.0257,89.2188,270.8976,0.0001924,2.775e-05,0.0,0 STARLINK-4121,1 53002U 22076S   23036.21984964  .00002775  00000-0  19240-3 0  9994,2 53002  53.2146 120.0257 0001501  89.2188 270.8976 15.08840494 32954,6917.879,95.438,540.782,538.706,0.0
53002.0,STARLINK-4121,PAYLOAD,2023-02-05 11:38:07,15.08842247,0.0001278,53.2163,118.8371,90.7425,269.3713,0.00011457,1.536e-05,0.0,0 STARLINK-4121,1 53002U 22076S   23036.48480744  .00001536  00000-0  11457-3 0  9996,2 53002  53.2163 118.8371 0001278  90.7425 269.3713 15.08842247 32520,6917.874,95.437,540.623,538.854,0.0
53002.0,STARLINK-4121,PAYLOAD,2023-02-05 14:48:53,15.08845173,0.0001223,53.2151,118.2415,93.7579,266.3553,0.00017349,2.475e-05,0.0,0 STARLINK-4121,1 53002U 22076S   23036.61728594  .00002475  00000-0  17349-3 0  9998,2 53002  53.2151 118.2415 0001223  93.7579 266.3553 15.08845173 32545,6917.865,95.437,540.576,538.884,0.0
53002.0,STARLINK-4121,PAYLOAD,2023-02-06 11:28:54,15.08850061,0.0001222,53.2155,114.3761,98.1098,262.0032,0.00022073,3.228e-05,0.0,0 STARLINK-4121,1 53002U 22076S   23037.47840370  .00003228  00000-0  22073-3 0  9997,2 53002  53.2155 114.3761 0001222  98.1098 262.0032 15.08850061 33148,6917.85,95.437,540.56,538.869,0.0
